{
    "links": {
        "self": "http://www.neowsapp.com/rest/v1/neo/3759673?api_key=iIulBulltgU6a56xZRHN4H3l9WmuAYTsLGpBGhQ2"
    },
    "id": "3759673",
    "neo_reference_id": "3759673",
    "name": "(2016 SF)",
    "designation": "2016 SF",
    "nasa_jpl_url": "http://ssd.jpl.nasa.gov/sbdb.cgi?sstr=3759673",
    "absolute_magnitude_h": 24.3,
    "estimated_diameter": {
        "kilometers": {
            "estimated_diameter_min": 0.0366906138,
            "estimated_diameter_max": 0.0820427065
        },
        "meters": {
            "estimated_diameter_min": 36.6906137531,
            "estimated_diameter_max": 82.0427064882
        },
        "miles": {
            "estimated_diameter_min": 0.0227984834,
            "estimated_diameter_max": 0.0509789586
        },
        "feet": {
            "estimated_diameter_min": 120.3760332259,
            "estimated_diameter_max": 269.1689931548
        }
    },
    "is_potentially_hazardous_asteroid": false,
    "close_approach_data": [
        {
            "close_approach_date": "2016-09-07",
            "close_approach_date_full": "2016-Sep-07 05:26",
            "epoch_date_close_approach": 1473225960000,
            "relative_velocity": {
                "kilometers_per_second": "15.1795827488",
                "kilometers_per_hour": "54646.4978958013",
                "miles_per_hour": "33955.2086508661"
            },
            "miss_distance": {
                "astronomical": "0.0338626951",
                "lunar": "13.1725883939",
                "kilometers": "5065787.059419437",
                "miles": "3147734.1163527506"
            },
            "orbiting_body": "Earth"
        }
    ],
    "orbital_data": {
        "orbit_id": "5",
        "orbit_determination_date": "2017-04-06 08:23:45",
        "first_observation_date": "2016-09-22",
        "last_observation_date": "2016-10-06",
        "data_arc_in_days": 14,
        "observations_used": 21,
        "orbit_uncertainty": "8",
        "minimum_orbit_intersection": ".029613",
        "jupiter_tisserand_invariant": "3.451",
        "epoch_osculation": "2457658.5",
        "eccentricity": ".6084437729805884",
        "semi_major_axis": "2.132738979128725",
        "inclination": "5.621895137903126",
        "ascending_node_longitude": ".2415137892540514",
        "orbital_period": "1137.640347988414",
        "perihelion_distance": ".8350872278848753",
        "perihelion_argument": "285.234470584075",
        "aphelion_distance": "3.430390730372575",
        "perihelion_time": "2457597.801723286503",
        "mean_anomaly": "19.20763416619034",
        "mean_motion": ".3164444726635754",
        "equinox": "J2000",
        "orbit_class": {
            "orbit_class_type": "APO",
            "orbit_class_description": "Near-Earth asteroid orbits which cross the Earth’s orbit similar to that of 1862 Apollo",
            "orbit_class_range": "a (semi-major axis) > 1.0 AU; q (perihelion) < 1.017 AU"
        }
    },
    "is_sentry_object": false
}